0 IUS R/B(1)
1 19970U 89033C   13282.47553142  .00004256  00000-0  10124-2 0    39
2 19970 027.9740 025.8987 6123077 015.7566 016.8818 03.85176889319967
0 IUS R/B(1)
1 19970U 89033C   13283.50797241  .00004261  00000-0  10069-2 0    49
2 19970 027.9745 025.1716 6123057 016.9505 008.4890 03.85186359320006
0 IUS R/B(1)
1 19970U 89033C   13285.58882803  .00004567  00000-0  10862-2 0    60
2 19970 027.9753 023.7053 6123060 019.3566 013.9671 03.85201089320085
0 IUS R/B(1)
1 19970U 89033C   13286.62958023  .00004998  00000-0  11999-2 0    75
2 19970 027.9761 022.9727 6123040 020.5593 017.2118 03.85208375320128
0 IUS R/B(1)
1 19970U 89033C   13287.40532203  .00004773  00000-0  11573-2 0    80
2 19970 027.9765 022.4263 6123025 021.4584 012.9635 03.85218344320151
0 IUS R/B(1)
1 19970U 89033C   13288.44541764  .00005526  00000-0  13460-2 0    92
2 19970 027.9771 021.6938 6122961 022.6645 015.3502 03.85235554320193
0 IUS R/B(1)
1 19970U 89033C   13289.47784828  .00004716  00000-0  11687-2 0   107
2 19970 027.9772 020.9650 6122877 023.8597 007.1626 03.85248918320231
0 IUS R/B(1)
1 19970U 89033C   13290.50741844  .00005165  00000-0  11475-2 0   119
2 19970 027.9649 020.2525 6124426 025.0285 355.0853 03.85251226320264
0 IUS R/B(1)
1 19970U 89033C   13290.51782571  .00005330  00000-0  13165-2 0   114
2 19970 027.9776 020.2327 6122856 025.0611 009.4938 03.85257578320274
0 IUS R/B(1)
1 19970U 89033C   13291.30007153  .00005003  00000-0  12394-2 0   129
2 19970 027.9780 019.6822 6122848 025.9654 014.3989 03.85266795320304
0 IUS R/B(1)
1 19970U 89033C   13292.34018034  .00005019  00000-0  12387-2 0   134
2 19970 027.9787 018.9496 6122805 027.1676 016.9848 03.85276978320341
0 IUS R/B(1)
1 19970U 89033C   13293.37274198  .00005283  00000-0  12905-2 0   143
2 19970 027.9793 018.2225 6122769 028.3627 009.1428 03.85289601320388
0 IUS R/B(1)
1 19970U 89033C   13294.41381203  .00005062  00000-0  12267-2 0   152
2 19970 027.9795 017.4884 6122747 029.5691 013.1414 03.85303984320428
0 IUS R/B(1)
1 19970U 89033C   13295.44643931  .00005399  00000-0  12922-2 0   167
2 19970 027.9798 016.7606 6122714 030.7643 005.4849 03.85315355320465
